NORAD_CAT_ID,OBJECT_NAME,OBJECT_TYPE,EPOCH,MEAN_MOTION,ECCENTRICITY,INCLINATION,RA_OF_ASC_NODE,ARG_OF_PERICENTER,MEAN_ANOMALY,BSTAR,MEAN_MOTION_DOT,MEAN_MOTION_DDOT,TLE_LINE0,TLE_LINE1,TLE_LINE2,SEMIMAJOR_AXIS,PERIOD,APOGEE,PERIGEE,DECAYED
52576.0,STARLINK-3932,PAYLOAD,2024-08-02 10:35:38,15.08839269,0.0001315,53.2155,221.9132,87.7392,272.3751,5.1603e-05,5.33e-06,0.0,0 STARLINK-3932,1 52576U 22051AS  24215.44141387  .00000533  00000-0  51603-4 0  9991,2 52576  53.2155 221.9132 0001315  87.7392 272.3751 15.08839269123389,6917.883,95.438,540.657,538.838,0.0
52576.0,STARLINK-3932,PAYLOAD,2024-08-02 16:57:10,15.08842419,0.0001333,53.2158,220.724,88.1427,271.9718,7.1249e-05,8.46e-06,0.0,0 STARLINK-3932,1 52576U 22051AS  24215.70637141  .00000846  00000-0  71249-4 0  9993,2 52576  53.2158 220.7240 0001333  88.1427 271.9718 15.08842419123427,6917.873,95.437,540.66,538.816,0.0
52576.0,STARLINK-3932,PAYLOAD,2024-08-03 05:40:15,15.08838013,0.0001368,53.2163,218.3456,88.8848,271.2301,-9.1236e-06,-4.33e-06,0.0,0 STARLINK-3932,1 52576U 22051AS  24216.23629579 -.00000433  00000-0 -91236-5 0  9991,2 52576  53.2163 218.3456 0001368  88.8848 271.2301 15.08838013123579,6917.886,95.438,540.698,538.805,0.0
52576.0,STARLINK-3932,PAYLOAD,2024-08-03 07:15:39,15.08839068,0.0001367,53.2164,218.0484,88.7287,271.3862,-2.8809e-06,-3.34e-06,0.0,0 STARLINK-3932,1 52576U 22051AS  24216.30253478 -.00000334  00000-0 -28809-5 0  9996,2 52576  53.2164 218.0484 0001367  88.7287 271.3862 15.08839068123511,6917.883,95.438,540.694,538.803,0.0
52576.0,STARLINK-3932,PAYLOAD,2024-08-03 16:47:57,15.08842366,0.0001364,53.2165,216.2642,88.1722,271.9427,2.5666e-05,1.21e-06,0.0,0 STARLINK-3932,1 52576U 22051AS  24216.69997175  .00000121  00000-0  25666-4 0  9996,2 52576  53.2165 216.2642 0001364  88.1722 271.9427 15.08842366123577,6917.873,95.437,540.682,538.795,0.0
52576.0,STARLINK-3932,PAYLOAD,2024-08-04 07:06:26,15.08837312,0.0001351,53.2166,213.5886,90.9842,269.1305,6.1841e-05,6.96e-06,0.0,0 STARLINK-3932,1 52576U 22051AS  24217.29613466  .00000696  00000-0  61841-4 0  9993,2 52576  53.2166 213.5886 0001351  90.9842 269.1305 15.08837312123735,6917.889,95.438,540.688,538.819,0.0
52576.0,STARLINK-3932,PAYLOAD,2024-08-04 16:38:44,15.08846199,0.0001371,53.2169,211.8044,90.5793,269.5356,0.00011427,1.531e-05,0.0,0 STARLINK-3932,1 52576U 22051AS  24217.69356773  .00001531  00000-0  11427-3 0  9995,2 52576  53.2169 211.8044 0001371  90.5793 269.5356 15.08846199123797,6917.861,95.437,540.675,538.778,0.0
52576.0,STARLINK-3932,PAYLOAD,2024-08-05 05:21:50,15.0883353,0.0001655,53.2174,209.4268,92.4404,267.6777,3.3437e-05,2.44e-06,0.0,0 STARLINK-3932,1 52576U 22051AS  24218.22349969  .00000244  00000-0  33437-4 0  9990,2 52576  53.2174 209.4268 0001655  92.4404 267.6777 15.08833530123879,6917.9,95.438,540.91,538.62,0.0
52576.0,STARLINK-3932,PAYLOAD,2024-08-05 16:29:31,15.08844566,0.0001496,53.2163,207.3433,85.0626,275.0537,8.1268e-05,1.006e-05,0.0,0 STARLINK-3932,1 52576U 22051AS  24218.68717077  .00001006  00000-0  81268-4 0  9991,2 52576  53.2163 207.3433 0001496  85.0626 275.0537 15.08844566123941,6917.866,95.437,540.766,538.697,0.0
52576.0,STARLINK-3932,PAYLOAD,2024-08-06 05:12:37,15.08833217,0.0001605,53.2166,204.963,80.8211,279.2962,-5.7933e-05,-1.21e-05,0.0,0 STARLINK-3932,1 52576U 22051AS  24219.21710390 -.00001210  00000-0 -57933-4 0  9993,2 52576  53.2166 204.9630 0001605  80.8211 279.2962 15.08833217124020,6917.901,95.438,540.876,538.656,0.0
52576.0,STARLINK-3932,PAYLOAD,2024-08-06 08:23:23,15.08838204,0.0001398,53.2159,204.3675,82.4652,277.6499,-2.0022e-05,-6.07e-06,0.0,0 STARLINK-3932,1 52576U 22051AS  24219.34957902 -.00000607  00000-0 -20022-4 0  9997,2 52576  53.2159 204.3675 0001398  82.4652 277.6499 15.08838204123972,6917.886,95.438,540.718,538.784,0.0
52576.0,STARLINK-3932,PAYLOAD,2024-08-06 16:20:19,15.08842971,0.0001585,53.2169,202.8837,85.9162,274.2011,1.0172e-05,-1.26e-06,0.0,0 STARLINK-3932,1 52576U 22051AS  24219.68077577 -.00000126  00000-0  10172-4 0  9995,2 52576  53.2169 202.8837 0001585  85.9162 274.2011 15.08842971124091,6917.871,95.437,540.833,538.64,0.0
52576.0,STARLINK-3932,PAYLOAD,2024-08-06 22:41:51,15.08837744,0.000155,53.2161,201.6936,86.54,273.577,8.7236e-05,1.101e-05,0.0,0 STARLINK-3932,1 52576U 22051AS  24219.94573646  .00001101  00000-0  87236-4 0  9990,2 52576  53.2161 201.6936 0001550  86.5400 273.5770 15.08837744124067,6917.887,95.438,540.825,538.68,0.0
52576.0,STARLINK-3932,PAYLOAD,2024-08-08 08:04:57,15.08841755,0.0001433,53.2155,195.4487,85.7429,274.3727,8.7257e-05,1.101e-05,0.0,0 STARLINK-3932,1 52576U 22051AS  24221.33677541  .00001101  00000-0  87257-4 0  9998,2 52576  53.2155 195.4487 0001433  85.7429 274.3727 15.08841755124274,6917.875,95.437,540.731,538.749,0.0
52576.0,STARLINK-3932,PAYLOAD,2024-08-09 07:55:44,15.08838808,0.0001243,53.2154,190.9861,105.4183,254.6946,-2.3449e-05,-6.61e-06,0.0,0 STARLINK-3932,1 52576U 22051AS  24222.33037849 -.00000661  00000-0 -23449-4 0  9995,2 52576  53.2154 190.9861 0001243 105.4183 254.6946 15.08838808124498,6917.884,95.438,540.609,538.889,0.0
52576.0,STARLINK-3932,PAYLOAD,2024-08-09 22:14:13,15.08834158,0.0001178,53.2159,188.3092,104.5873,255.525,8.6077e-06,-1.51e-06,0.0,0 STARLINK-3932,1 52576U 22051AS  24222.92654178 -.00000151  00000-0  86077-5 0  9990,2 52576  53.2159 188.3092 0001178 104.5873 255.5250 15.08834158124518,6917.898,95.438,540.578,538.948,0.0
52576.0,STARLINK-3932,PAYLOAD,2024-08-10 04:35:45,15.08832087,0.0001152,53.216,187.1198,103.5683,256.5438,-1.3668e-05,-5.05e-06,0.0,0 STARLINK-3932,1 52576U 22051AS  24223.19150417 -.00000505  00000-0 -13668-4 0  9996,2 52576  53.2160 187.1198 0001152 103.5683 256.5438 15.08832087124624,6917.905,95.438,540.567,538.973,0.0
52576.0,STARLINK-3932,PAYLOAD,2024-08-11 02:51:09,15.08836081,0.000117,53.2164,182.9568,101.7163,258.396,0.00010169,1.331e-05,0.0,0 STARLINK-3932,1 52576U 22051AS  24224.11886177  .00001331  00000-0  10169-3 0  9996,2 52576  53.2164 182.9568 0001170 101.7163 258.3960 15.08836081124768,6917.892,95.438,540.567,538.948,0.0
52576.0,STARLINK-3932,PAYLOAD,2024-08-11 07:37:17,15.08853427,0.0001096,53.215,182.066,95.6515,264.4602,0.00023715,3.49e-05,0.0,0 STARLINK-3932,1 52576U 22051AS  24224.31756762  .00003490  00000-0  23715-3 0  9993,2 52576  53.2150 182.0660 0001096  95.6515 264.4602 15.08853427124793,6917.839,95.437,540.463,538.946,0.0
52576.0,STARLINK-3932,PAYLOAD,2024-08-11 21:55:48,15.08819881,0.0001167,53.218,179.3919,95.5757,264.5368,-2.9347e-05,-7.55e-06,0.0,0 STARLINK-3932,1 52576U 22051AS  24224.91375497 -.00000755  00000-0 -29347-4 0  9992,2 52576  53.2180 179.3919 0001167  95.5757 264.5368 15.08819881124817,6917.942,95.439,540.614,539.0,0.0
52576.0,STARLINK-3932,PAYLOAD,2024-08-12 04:17:19,15.08836115,0.0001282,53.2173,178.2059,108.5188,251.5943,0.00012774,1.745e-05,0.0,0 STARLINK-3932,1 52576U 22051AS  24225.17870301  .00001745  00000-0  12774-3 0  9998,2 52576  53.2173 178.2059 0001282 108.5188 251.5943 15.08836115124929,6917.892,95.438,540.644,538.87,0.0
52576.0,STARLINK-3932,PAYLOAD,2024-08-12 07:28:05,15.08848817,0.0001136,53.2146,177.6052,76.2847,283.8271,0.0001901,2.74e-05,0.0,0 STARLINK-3932,1 52576U 22051AS  24225.31117390  .00002740  00000-0  19010-3 0  9992,2 52576  53.2146 177.6052 0001136  76.2847 283.8271 15.08848817124942,6917.853,95.437,540.504,538.933,0.0
52576.0,STARLINK-3932,PAYLOAD,2024-08-12 13:49:37,15.08865889,0.0001022,53.2159,176.4166,86.3989,273.712,0.00039058,5.938e-05,0.0,0 STARLINK-3932,1 52576U 22051AS  24225.57612321  .00005938  00000-0  39058-3 0  9990,2 52576  53.2159 176.4166 0001022  86.3989 273.7120 15.08865889124918,6917.801,95.436,540.373,538.959,0.0
52576.0,STARLINK-3932,PAYLOAD,2024-08-13 04:08:08,15.0878624,0.0001612,53.2172,173.742,71.6624,288.4543,-0.0012954,-0.00020815,0.0,0 STARLINK-3932,1 52576U 22051AS  24226.17231487 -.00020815  00000-0 -12954-2 0  9995,2 52576  53.2172 173.7420 0001612  71.6624 288.4543 15.08786240125077,6918.045,95.441,541.025,538.795,0.0
52576.0,STARLINK-3932,PAYLOAD,2024-08-13 13:40:27,15.08788301,0.0001094,53.2147,171.9555,103.9685,256.1429,-0.0008878,-0.00014369,0.0,0 STARLINK-3932,1 52576U 22051AS  24226.56976236 -.00014369  00000-0 -88780-3 0  9994,2 52576  53.2147 171.9555 0001094 103.9685 256.1429 15.08788301125062,6918.038,95.441,540.66,539.147,0.0
52576.0,STARLINK-3932,PAYLOAD,2024-08-14 03:58:55,15.08837186,0.0001174,53.2155,169.2795,94.1703,265.9424,0.00060196,9.305e-05,0.0,0 STARLINK-3932,1 52576U 22051AS  24227.16591781  .00009305  00000-0  60196-3 0  9992,2 52576  53.2155 169.2795 0001174  94.1703 265.9424 15.08837186125225,6917.889,95.438,540.566,538.942,0.0
52576.0,STARLINK-3932,PAYLOAD,2024-08-14 13:31:14,15.08842376,0.0001143,53.2159,167.496,94.1682,265.9441,0.00075376,0.00011729,0.0,0 STARLINK-3932,1 52576U 22051AS  24227.56335893  .00011729  00000-0  75376-3 0  9995,2 52576  53.2159 167.4960 0001143  94.1682 265.9441 15.08842376125210,6917.873,95.437,540.529,538.947,0.0
52576.0,STARLINK-3932,PAYLOAD,2024-08-15 02:14:19,15.0884004,0.0001345,53.2158,165.1166,77.4193,282.6949,0.00088895,0.00013888,0.0,0 STARLINK-3932,1 52576U 22051AS  24228.09328270  .00013888  00000-0  88895-3 0  9993,2 52576  53.2158 165.1166 0001345  77.4193 282.6949 15.08840040125368,6917.88,95.438,540.676,538.815,0.0
52576.0,STARLINK-3932,PAYLOAD,2024-08-15 13:22:00,15.08859798,0.0001355,53.2159,163.0325,99.6443,260.4703,0.00074036,0.00011521,0.0,0 STARLINK-3932,1 52576U 22051AS  24228.55695007  .00011521  00000-0  74036-3 0  9993,2 52576  53.2159 163.0325 0001355  99.6443 260.4703 15.08859798125360,6917.82,95.436,540.622,538.748,0.0
52576.0,STARLINK-3932,PAYLOAD,2024-08-15 22:54:19,15.08841313,0.0001175,53.2155,161.2525,76.2447,283.8676,-0.00010376,-1.939e-05,0.0,0 STARLINK-3932,1 52576U 22051AS  24228.95439264 -.00001939  00000-0 -10376-3 0  9999,2 52576  53.2155 161.2525 0001175  76.2447 283.8676 15.08841313125422,6917.876,95.437,540.554,538.929,0.0
